{"fetched_at":"2026-03-30T06:02:59Z","count":15439,"tles":[{"name":"STARLINK-4676","line1":"1 53598U 22104L   26087.46933117 -.00000301  00000+0 -80480-6 0  9997","line2":"2 53598  53.2146 159.5553 0001413  90.5247 269.5907 15.08845014198453","category":"Starlink"}]}